GLOBALSTAR M035 [-]     
1 25851U 99037A   24088.94510076 -.00000058  00000+0  22028-3 0  9993
2 25851  51.9985 327.8894 0013485 343.7951  29.1008 11.04529434 47064
GLOBALSTAR M030 [-]     
1 25854U 99037D   24088.68788827 -.00000026  00000+0  10420-2 0  9995
2 25854  51.9859 230.0278 0003133 339.6731  20.3961 11.55087000 98563
GLOBALSTAR M048 [-]     
1 25872U 99041A   24088.90877608 -.00000055  00000+0  41663-3 0  9997
2 25872  51.9383 312.8807 0013903 131.3585 243.4889 11.33844500 74475
GLOBALSTAR M026 [-]     
1 25873U 99041B   24088.91696275 -.00000010  00000+0  19763-2 0  9994
2 25873  51.9990  90.5955 0001213 224.5084 201.4425 11.06835954 99182
GLOBALSTAR M043 [-]     
1 25874U 99041C   24088.61992170 -.00000052  00000+0  49224-3 0  9997
2 25874  51.9423  43.4446 0012657 274.2470 256.6549 11.25676405 72692
GLOBALSTAR M028 [-]     
1 25875U 99041D   24088.41075465 -.00000109  00000+0 -59656-4 0  9990
2 25875  51.9613  82.2539 0063404 183.1519 176.8950 12.50552583134402
